ONEWEB-0063             
1 45448U 20020AA  23350.67267388  .00000466  00000+0  12787-2 0  9991
2 45448  87.8975 202.5951 0001585  70.8573 289.2726 13.11416059182967
ONEWEB-0019             
1 45449U 20020AB  23350.64670256  .00000265  00000+0  71228-3 0  9994
2 45449  87.8972 202.5966 0001678  86.1832 273.9488 13.11419399182800
ONEWEB-0094             
1 45450U 20020AC  23351.47612751 -.00017435  00000+0 -45096-1 0  9995
2 45450  87.9154 187.3133 0001644  69.4845 290.6462 13.17538734186119
ONEWEB-0087             
1 45451U 20020AD  23350.67915981  .00000209  00000+0  55499-3 0  9997
2 45451  87.8959 202.5759 0001141  86.8282 273.2977 13.11414684182852
ONEWEB-0082             
1 45452U 20020AE  23351.13856515  .00000119  00000+0  30108-3 0  9997
2 45452  87.8973 202.4775 0001505  91.4252 268.7049 13.11414538183015
ONEWEB-0050             
1 45453U 20020AF  23350.75658009  .00005592  00000+0  44161-3 0  9997
2 45453  88.0004  74.8562 0024167  15.3213 344.8747 15.00295588204264
ONEWEB-0034             
1 45454U 20020AG  23350.62395510 -.00000501  00000+0 -14487-2 0  9993
2 45454  87.8974 202.5975 0001372  91.3554 268.7731 13.11415925182857
ONEWEB-0060             
1 45455U 20020AH  23350.63207289 -.00000486  00000+0 -14063-2 0  9992
2 45455  87.8972 202.5925 0001360  74.7408 285.3870 13.11417573182828
